ONEWEB-0645             
1 55809U 23029P   25072.88162489  .00000056  00000+0  10722-3 0  9990
2 55809  87.9215  36.4745 0002208  84.3192 275.8193 13.19723723 98199
ONEWEB-0646             
1 55810U 23029Q   25072.91164631  .00000037  00000+0  60515-4 0  9992
2 55810  87.9212  36.4634 0002083  74.9030 285.2333 13.19723686 98180
ONEWEB-0648             
1 55811U 23029R   25072.90427554  .00000103  00000+0  24406-3 0  9990
2 55811  87.9072  21.2288 0002882  74.1066 286.0381 13.14502286 98920
ONEWEB-0649             
1 55812U 23029S   25072.95035177 -.00000053  00000+0 -16522-3 0  9998
2 55812  87.9208  36.4468 0002432  77.7519 282.3886 13.19725006 98227
ONEWEB-0650             
1 55813U 23029T   25072.94561471 -.00000027  00000+0 -99746-4 0  9990
2 55813  87.9213  36.4552 0002087  77.4292 282.7074 13.19725165 98194
ONEWEB-0652             
1 55814U 23029U   25072.88522428 -.00000203  00000+0 -58153-3 0  9995
2 55814  87.9073  21.2430 0001757  82.1468 277.9861 13.14504693 98890
ONEWEB-0653             
1 55815U 23029V   25072.86937975 -.00000170  00000+0 -49343-3 0  9995
2 55815  87.9077  21.2328 0001894  86.8313 273.3034 13.14501328 98921
ONEWEB-0654             
1 55816U 23029W   25072.86461909 -.00000076  00000+0 -23894-3 0  9993
2 55816  87.9075  21.2368 0001600  92.1657 267.9656 13.14501864 98946
